NORAD_CAT_ID,OBJECT_NAME,OBJECT_TYPE,EPOCH,MEAN_MOTION,ECCENTRICITY,INCLINATION,RA_OF_ASC_NODE,ARG_OF_PERICENTER,MEAN_ANOMALY,BSTAR,MEAN_MOTION_DOT,MEAN_MOTION_DDOT,TLE_LINE0,TLE_LINE1,TLE_LINE2,SEMIMAJOR_AXIS,PERIOD,APOGEE,PERIGEE,DECAYED
55663.0,STARLINK-5473,PAYLOAD,2024-07-02 16:31:10,14.98334492,0.000299,70.0003,275.078,273.403,86.6787,8.278e-05,8.95e-06,0.0,0 STARLINK-5473,1 55663U 23021AM  24184.68831425  .00000895  00000-0  82780-4 0  9990,2 55663  70.0003 275.0780 0002990 273.4030  86.6787 14.98334492 77165,6950.179,96.107,574.122,569.966,0.0
55663.0,STARLINK-5473,PAYLOAD,2024-07-03 13:20:55,14.98329526,0.0002915,70.0003,272.8904,269.366,90.7165,7.3394e-05,7.83e-06,0.0,0 STARLINK-5473,1 55663U 23021AM  24185.55619548  .00000783  00000-0  73394-4 0  9994,2 55663  70.0003 272.8904 0002915 269.3660  90.7165 14.98329526 76996,6950.194,96.107,574.085,570.033,0.0
55663.0,STARLINK-5473,PAYLOAD,2024-07-03 16:33:11,14.98333158,0.0003019,70.0001,272.5536,269.6099,90.4714,7.9664e-05,8.58e-06,0.0,0 STARLINK-5473,1 55663U 23021AM  24185.68971270  .00000858  00000-0  79664-4 0  9990,2 55663  70.0001 272.5536 0003019 269.6099  90.4714 14.98333158 77317,6950.183,96.107,574.146,569.95,0.0
55663.0,STARLINK-5473,PAYLOAD,2024-07-04 13:22:56,14.98330107,0.0002994,70.0001,270.3655,265.6002,94.4815,5.6402e-05,5.8e-06,0.0,0 STARLINK-5473,1 55663U 23021AM  24186.55759407  .00000580  00000-0  56402-4 0  9990,2 55663  70.0001 270.3655 0002994 265.6002  94.4815 14.98330107 77144,6950.193,96.107,574.138,569.977,0.0
55663.0,STARLINK-5473,PAYLOAD,2024-07-04 14:59:04,14.98329813,0.0003001,70.0001,270.1972,265.5234,94.5582,5.0353e-05,5.08e-06,0.0,0 STARLINK-5473,1 55663U 23021AM  24186.62435433  .00000508  00000-0  50353-4 0  9997,2 55663  70.0001 270.1972 0003001 265.5234  94.5582 14.98329813 77458,6950.193,96.107,574.144,569.973,0.0
55663.0,STARLINK-5473,PAYLOAD,2024-07-05 13:24:56,14.98337232,0.0003103,69.9997,267.8405,266.4946,93.5859,0.0001184,1.32e-05,0.0,0 STARLINK-5473,1 55663U 23021AM  24187.55898683  .00001320  00000-0  11840-3 0  9990,2 55663  69.9997 267.8405 0003103 266.4946  93.5859 14.98337232 77298,6950.171,96.107,574.192,569.879,0.0
55663.0,STARLINK-5473,PAYLOAD,2024-07-05 15:01:04,14.98340516,0.0003076,69.9998,267.6723,264.6674,95.4134,0.00016161,1.836e-05,0.0,0 STARLINK-5473,1 55663U 23021AM  24187.62574350  .00001836  00000-0  16161-3 0  9993,2 55663  69.9998 267.6723 0003076 264.6674  95.4134 14.98340516 77608,6950.16,96.106,574.163,569.888,0.0
55663.0,STARLINK-5473,PAYLOAD,2024-07-06 13:26:56,14.98338536,0.0003273,69.9994,265.315,269.5345,90.5439,0.00010488,1.159e-05,0.0,0 STARLINK-5473,1 55663U 23021AM  24188.56037957  .00001159  00000-0  10488-3 0  9998,2 55663  69.9994 265.3150 0003273 269.5345  90.5439 14.98338536 77749,6950.166,96.106,574.306,569.757,0.0
55663.0,STARLINK-5473,PAYLOAD,2024-07-06 15:03:04,14.98339298,0.000326,69.9995,265.1466,269.317,90.7616,0.00011452,1.274e-05,0.0,0 STARLINK-5473,1 55663U 23021AM  24188.62713846  .00001274  00000-0  11452-3 0  9993,2 55663  69.9995 265.1466 0003260 269.3170  90.7616 14.98339298 77451,6950.164,96.106,574.295,569.763,0.0
55663.0,STARLINK-5473,PAYLOAD,2024-07-07 05:28:18,14.98323337,0.0003053,70.0,263.631,271.2524,88.8285,-0.00011381,-1.45e-05,0.0,0 STARLINK-5473,1 55663U 23021AM  24189.22799397 -.00001450  00000-0 -11381-3 0  9994,2 55663  70.0000 263.6310 0003053 271.2524  88.8285 14.98323337 77544,6950.213,96.107,574.2,569.957,0.0
55663.0,STARLINK-5473,PAYLOAD,2024-07-07 11:52:50,14.98324111,0.0002888,70.0006,262.9608,256.4448,103.639,-0.00011724,-1.491e-05,0.0,0 STARLINK-5473,1 55663U 23021AM  24189.49503366 -.00001491  00000-0 -11724-3 0  9998,2 55663  70.0006 262.9608 0002888 256.4448 103.6390 14.98324111 77888,6950.211,96.107,574.083,570.069,0.0
55663.0,STARLINK-5473,PAYLOAD,2024-07-08 05:30:18,14.98331305,0.0003518,69.9989,261.1065,270.2397,89.8359,1.9209e-05,1.36e-06,0.0,0 STARLINK-5473,1 55663U 23021AM  24190.22938547  .00000136  00000-0  19209-4 0  9994,2 55663  69.9989 261.1065 0003518 270.2397  89.8359 14.98331305 77693,6950.189,96.107,574.499,569.609,0.0
55663.0,STARLINK-5473,PAYLOAD,2024-07-08 13:30:59,14.9833525,0.0003206,69.9998,260.2657,271.4414,88.6378,3.4562e-05,3.19e-06,0.0,0 STARLINK-5473,1 55663U 23021AM  24190.56318315  .00000319  00000-0  34562-4 0  9998,2 55663  69.9998 260.2657 0003206 271.4414  88.6378 14.98335250 78048,6950.177,96.107,574.27,569.813,0.0
55663.0,STARLINK-5473,PAYLOAD,2024-07-08 15:07:07,14.98335909,0.0003204,69.9998,260.0975,271.407,88.6722,4.1436e-05,4.01e-06,0.0,0 STARLINK-5473,1 55663U 23021AM  24190.62994239  .00000401  00000-0  41436-4 0  9990,2 55663  69.9998 260.0975 0003204 271.4070  88.6722 14.98335909 78050,6950.175,96.107,574.266,569.813,0.0
55663.0,STARLINK-5473,PAYLOAD,2024-07-09 05:32:20,14.9832374,0.0003341,69.9993,258.5823,267.7954,92.2823,0.00015563,1.764e-05,0.0,0 STARLINK-5473,1 55663U 23021AM  24191.23078735  .00001764  00000-0  15563-3 0  9996,2 55663  69.9993 258.5823 0003341 267.7954  92.2823 14.98323740 77849,6950.212,96.107,574.399,569.755,0.0
55663.0,STARLINK-5473,PAYLOAD,2024-07-09 13:33:00,14.98326176,0.000335,69.9994,257.7406,269.2402,90.8373,0.0001755,2.001e-05,0.0,0 STARLINK-5473,1 55663U 23021AM  24191.56458744  .00002001  00000-0  17550-3 0  9997,2 55663  69.9994 257.7406 0003350 269.2402  90.8373 14.98326176 78192,6950.205,96.107,574.398,569.741,0.0
55663.0,STARLINK-5473,PAYLOAD,2024-07-10 05:34:21,14.98331973,0.0003244,69.9996,256.0576,268.2714,91.8074,2.1386e-05,1.62e-06,0.0,0 STARLINK-5473,1 55663U 23021AM  24192.23218799  .00000162  00000-0  21386-4 0  9995,2 55663  69.9996 256.0576 0003244 268.2714  91.8074 14.98331973 77998,6950.187,96.107,574.306,569.797,0.0
55663.0,STARLINK-5473,PAYLOAD,2024-07-10 10:22:45,14.98329274,0.0003296,69.9995,255.5525,268.3399,91.7382,-1.2665e-05,-2.44e-06,0.0,0 STARLINK-5473,1 55663U 23021AM  24192.43247007 -.00000244  00000-0 -12665-4 0  9994,2 55663  69.9995 255.5525 0003296 268.3399  91.7382 14.98329274 78322,6950.195,96.107,574.351,569.769,0.0
55663.0,STARLINK-5473,PAYLOAD,2024-07-11 05:36:21,14.98331477,0.0003519,69.9988,253.5317,269.7682,90.3074,4.2215e-05,4.11e-06,0.0,0 STARLINK-5473,1 55663U 23021AM  24193.23358688  .00000411  00000-0  42215-4 0  9999,2 55663  69.9988 253.5317 0003519 269.7682  90.3074 14.98331477 78140,6950.188,96.107,574.499,569.608,0.0
55663.0,STARLINK-5473,PAYLOAD,2024-07-11 13:37:02,14.98333226,0.0003497,69.9989,252.6901,269.3809,90.695,5.8266e-05,6.02e-06,0.0,0 STARLINK-5473,1 55663U 23021AM  24193.56738494  .00000602  00000-0  58266-4 0  9997,2 55663  69.9989 252.6901 0003497 269.3809  90.6950 14.98333226 78490,6950.183,96.107,574.478,569.617,0.0
55663.0,STARLINK-5473,PAYLOAD,2024-07-12 05:38:22,14.98329006,0.0003479,69.9988,251.0075,266.0317,94.0444,7.1591e-05,7.61e-06,0.0,0 STARLINK-5473,1 55663U 23021AM  24194.23498721  .00000761  00000-0  71591-4 0  9990,2 55663  69.9988 251.0075 0003479 266.0317  94.0444 14.98329006 78297,6950.196,96.107,574.479,569.643,0.0
55663.0,STARLINK-5473,PAYLOAD,2024-07-12 13:39:03,14.98330684,0.0003508,69.9988,250.1661,268.9587,91.117,9.1004e-05,9.93e-06,0.0,0 STARLINK-5473,1 55663U 23021AM  24194.56878652  .00000993  00000-0  91004-4 0  9999,2 55663  69.9988 250.1661 0003508 268.9587  91.1170 14.98330684 78648,6950.191,96.107,574.494,569.618,0.0
55663.0,STARLINK-5473,PAYLOAD,2024-07-12 21:39:43,14.98330193,0.0003504,69.9988,249.3234,270.2301,89.8456,4.8561e-05,4.86e-06,0.0,0 STARLINK-5473,1 55663U 23021AM  24194.90258777  .00000486  00000-0  48561-4 0  9994,2 55663  69.9988 249.3234 0003504 270.2301  89.8456 14.98330193 78691,6950.192,96.107,574.493,569.622,0.0
55663.0,STARLINK-5473,PAYLOAD,2024-07-13 12:04:56,14.98332412,0.000355,69.9986,247.8085,270.08,89.9952,4.7811e-05,4.77e-06,0.0,0 STARLINK-5473,1 55663U 23021AM  24195.50342615  .00000477  00000-0  47811-4 0  9993,2 55663  69.9986 247.8085 0003550 270.0800  89.9952 14.98332412 78484,6950.185,96.107,574.518,569.583,0.0
55663.0,STARLINK-5473,PAYLOAD,2024-07-13 13:41:04,14.98333167,0.0003544,69.9986,247.6401,270.0784,89.9969,5.5808e-05,5.73e-06,0.0,0 STARLINK-5473,1 55663U 23021AM  24195.57018538  .00000573  00000-0  55808-4 0  9996,2 55663  69.9986 247.6401 0003544 270.0784  89.9969 14.98333167 78798,6950.183,96.107,574.511,569.585,0.0
55663.0,STARLINK-5473,PAYLOAD,2024-07-14 12:06:56,14.98333133,0.0003535,69.9986,245.2836,270.0398,90.0356,8.1785e-05,8.83e-06,0.0,0 STARLINK-5473,1 55663U 23021AM  24196.50482440  .00000883  00000-0  81785-4 0  9994,2 55663  69.9986 245.2836 0003535 270.0398  90.0356 14.98333133 78634,6950.183,96.107,574.505,569.591,0.0
55663.0,STARLINK-5473,PAYLOAD,2024-07-14 13:43:04,14.98333859,0.0003535,69.9986,245.1153,270.0438,90.0316,8.8803e-05,9.67e-06,0.0,0 STARLINK-5473,1 55663U 23021AM  24196.57158370  .00000967  00000-0  88803-4 0  9994,2 55663  69.9986 245.1153 0003535 270.0438  90.0316 14.98333859 78945,6950.181,96.107,574.503,569.589,0.0
55663.0,STARLINK-5473,PAYLOAD,2024-07-14 20:07:37,14.98332509,0.0003516,69.9987,244.442,270.2422,89.8334,5.914e-05,6.13e-06,0.0,0 STARLINK-5473,1 55663U 23021AM  24196.83862490  .00000613  00000-0  59140-4 0  9998,2 55663  69.9987 244.4420 0003516 270.2422  89.8334 14.98332509 78980,6950.185,96.107,574.494,569.606,0.0
55663.0,STARLINK-5473,PAYLOAD,2024-07-15 12:08:57,14.98333054,0.0003512,69.9987,242.7593,267.9903,92.0854,6.5157e-05,6.85e-06,0.0,0 STARLINK-5473,1 55663U 23021AM  24197.50622383  .00000685  00000-0  65157-4 0  9992,2 55663  69.9987 242.7593 0003512 267.9903  92.0854 14.98333054 78782,6950.183,96.107,574.489,569.608,0.0
55663.0,STARLINK-5473,PAYLOAD,2024-07-15 20:09:38,14.9833118,0.0003499,69.9987,241.9176,268.3902,91.6856,3.7397e-05,3.53e-06,0.0,0 STARLINK-5473,1 55663U 23021AM  24197.84002475  .00000353  00000-0  37397-4 0  9990,2 55663  69.9987 241.9176 0003499 268.3902  91.6856 14.98331180 79133,6950.189,96.107,574.486,569.622,0.0
